EPOCH,MEAN_MOTION,ECCENTRICITY,INCLINATION,RA_OF_ASC_NODE,ARG_OF_PERICENTER,MEAN_ANOMALY,BSTAR,MEAN_MOTION_DOT,MEAN_MOTION_DDOT,SEMIMAJOR_AXIS,PERIOD,APOAPSIS,PERIAPSIS,OBJECT_TYPE,RCS_SIZE,COUNTRY_CODE,LAUNCH_DATE,SITE,FILE
2021-10-31T22:16:38.804160,14.11602559,0.0010556,98.7209,352.8036,333.9989,26.0651,0.00084388,0.00001491,0,7232.03,102.012,861.529,846.261,DEBRIS,SMALL,US,2000,AFWTR,3195333
2021-10-31T13:48:45.453312,14.24707584,0.0048242,98.8998,61.192,322.0902,37.6883,0.00084926,0.00001955,0,7187.613,101.073,844.152,774.803,DEBRIS,SMALL,US,2000,AFWTR,3194864
2021-10-31T09:50:05.525088,14.11442392,0.0028551,98.8045,11.7525,227.7426,132.1324,0.00074475,0.00001311,0,7232.577,102.023,875.092,833.792,DEBRIS,SMALL,US,2000,AFWTR,3194431
2021-10-28T10:27:21.525120,14.11103864,0.0023774,98.7785,3.9867,240.5581,119.3218,0.00048435,0.00000831,0,7233.734,102.048,872.796,838.401,DEBRIS,SMALL,US,2000,AFWTR,3189111
2021-10-31T11:54:18.439200,14.17624104,0.0003723,98.8659,29.2559,351.8741,8.2373,0.0015022,0.00003011,0,7211.536,101.578,836.086,830.716,DEBRIS,SMALL,US,2000,AFWTR,3194431
2021-11-01T00:00:47.038752,14.08090337,0.004537,98.8234,2.0075,268.3335,91.2637,0.0008389,0.00001399,0,7244.051,102.266,898.782,833.05,DEBRIS,SMALL,US,2000,AFWTR,3195333
2021-10-31T19:50:37.396608,13.95612595,0.008645,98.8361,325.5137,84.181,276.92,0.00084673,0.00001147,0,7287.165,103.18,972.027,846.032,DEBRIS,SMALL,US,2000,AFWTR,3194950
2021-10-31T11:01:36.974208,14.14281108,0.0020962,98.7425,9.0911,160.3341,199.8645,0.00063743,0.00001177,0,7222.896,101.819,859.901,829.62,DEBRIS,SMALL,US,2000,AFWTR,3194431
2021-10-31T03:08:03.184224,14.23213882,0.0035715,98.8826,55.1097,6.516,353.6475,0.00076461,0.00001695,0,7192.641,101.179,840.195,788.818,DEBRIS,SMALL,US,2000,AFWTR,3194431
2021-10-31T12:43:15.064608,14.14545841,0.0030839,98.8797,34.1981,186.6361,173.4408,0.00074175,0.00001386,0,7221.995,101.799,866.131,821.588,DEBRIS,SMALL,US,2000,AFWTR,3194431
2021-10-31T09:39:27.976032,14.06926731,0.003644,98.8112,354.4658,18.8766,341.3745,0.0007929,0.00001287,0,7248.045,102.351,896.321,843.498,DEBRIS,SMALL,US,2000,AFWTR,3194431
2021-11-01T04:50:57.988320,14.26015555,0.004848,98.9195,68.5571,319.5669,40.1911,0.00086772,0.00002051,0,7183.217,100.981,839.906,770.258,DEBRIS,SMALL,US,2000,AFWTR,3195681
2021-10-31T12:49:26.067072,14.22495218,0.0024982,98.8952,53.4629,13.2333,346.9494,0.0012305,0.00002709,0,7195.064,101.231,834.903,798.954,DEBRIS,SMALL,US,2000,AFWTR,3194846
2021-10-31T21:21:27.321984,14.14359238,0.0015151,98.7328,3.1916,339.6724,20.3845,0.0008876,0.00001656,0,7222.63,101.813,855.438,833.552,DEBRIS,SMALL,US,2000,AFWTR,3194950
2021-10-31T12:36:06.338304,14.22669281,0.0044582,98.8727,51.3927,47.033,313.4572,0.00090934,0.00002011,0,7194.477,101.218,848.416,784.267,DEBRIS,SMALL,US,2000,AFWTR,3194431
2021-10-31T10:50:44.471040,14.06714222,0.0042352,98.9681,18.0153,38.9343,321.4863,0.0011865,0.00001943,0,7248.774,102.366,901.34,839.939,DEBRIS,SMALL,US,2000,AFWTR,3194431
2021-11-01T03:25:59.232288,14.23062189,0.0053697,98.9655,68.5629,67.3712,293.3133,0.0010188,0.00002286,0,7193.152,101.19,853.642,776.392,DEBRIS,SMALL,US,2000,AFWTR,3195326
2021-10-31T13:08:27.678048,14.17177656,0.0037049,98.9817,55.948,165.4897,194.735,0.0010391,0.00002064,0,7213.051,101.61,861.639,808.192,DEBRIS,SMALL,US,2000,AFWTR,3194431
2021-11-01T00:08:15.803808,14.17534567,0.0022585,98.8353,21.5694,332.4297,27.5678,0.0015597,0.0000313,0,7211.84,101.585,849.993,817.417,DEBRIS,SMALL,US,2000,AFWTR,3195021
2021-10-31T04:05:27.174624,14.36056865,0.008761,98.9375,101.2452,259.2043,99.927,0.0011147,0.0000334,0,7149.693,100.275,834.197,708.92,DEBRIS,SMALL,US,2000,AFWTR,3194431
2021-10-31T14:49:59.582208,14.29265949,0.0016202,98.9394,76.1736,323.3084,36.6987,0.0040557,0.00010295,0,7172.323,100.751,805.808,782.567,DEBRIS,SMALL,US,2000,AFWTR,3194431
2021-10-31T16:52:52.731840,14.32690392,0.0079131,99.0421,113.7187,313.6356,45.8281,0.00072944,0.00002006,0,7160.889,100.51,839.419,726.089,DEBRIS,SMALL,US,2000,AFWTR,3194950
2021-11-01T02:59:23.785440,14.20783159,0.0028272,98.8565,45.5173,47.093,313.2613,0.00075296,0.00001587,0,7200.842,101.353,843.066,802.349,DEBRIS,SMALL,US,2000,AFWTR,3195210
2021-10-31T09:59:34.784448,14.07776663,0.0036477,98.8175,3.2616,290.0055,69.7188,0.0006151,0.00001004,0,7245.127,102.289,893.42,840.564,DEBRIS,SMALL,US,2000,AFWTR,3194431
2021-11-01T03:17:02.596704,14.21165219,0.0022487,98.9491,58.1272,356.9273,3.1761,0.0017485,0.00003768,0,7199.552,101.325,837.606,805.227,DEBRIS,SMALL,US,2000,AFWTR,3195683
2021-10-31T11:08:43.430784,14.16395409,0.0023261,98.7968,24.9844,130.0002,230.3219,0.00067195,0.00001295,0,7215.706,101.667,854.356,820.787,DEBRIS,SMALL,US,2000,AFWTR,3194472
2021-10-31T12:34:16.252608,14.1465682,0.0027743,98.8506,29.6887,178.7889,181.3356,0.00069117,0.0000129,0,7221.617,101.791,863.517,823.447,DEBRIS,SMALL,US,2000,AFWTR,3194431
2021-10-31T08:43:47.729568,14.07561911,0.0045439,98.7449,344.5517,272.1248,87.4718,0.00063501,0.00001038,0,7245.864,102.305,900.653,834.804,DEBRIS,SMALL,US,2000,AFWTR,3194431
2021-11-01T00:08:10.972320,14.21412824,0.0031538,98.8038,38.3669,351.7766,8.289,0.00076248,0.0000163,0,7198.716,101.308,843.284,797.877,DEBRIS,SMALL,US,2000,AFWTR,3195162
2021-11-01T00:37:36.787008,1.0027145,0.0001,0.0184,280.0691,232.0257,6.1788,0,-0.00000338,0,42164.826,1436.102,35790.907,35782.474,PAYLOAD,LARGE,SES,2016,AFETR,3195166
2021-10-31T16:00:59.306976,1.99751426,0.7493916,27.6613,64.0316,155.6234,276.6582,0.0024056,0.00002374,0,26632.294,720.896,40212.177,296.142,ROCKET BODY,LARGE,US,2016,AFETR,3194950
2021-10-31T20:52:57.505728,1.00272759,0.0001643,0.0547,15.5227,194.6845,78.253,0,-0.00000269,0,42164.459,1436.083,35793.252,35779.396,PAYLOAD,LARGE,EUTE,2016,FRGUI,3194950
2021-10-31T15:53:59.131680,2.71714925,0.6952513,0.3825,251.869,252.6734,292.2432,0.00044977,0.0000313,0,21693.328,529.967,30397.507,232.878,ROCKET BODY,LARGE,FR,2016,FRGUI,3194950
2021-10-31T20:31:44.739552,4.11975248,0.5965791,17.8316,49.7271,28.5851,353.9508,0.00094684,0.00008309,0,16436.945,349.536,19864.747,252.872,ROCKET BODY,LARGE,IND,2016,SRI,3195273
2021-11-01T12:44:06.182304,15.33537254,0.0005492,97.2186,28.8419,117.8291,300.1848,0.000060704,0.00001892,0,6843.406,93.901,469.029,461.512,PAYLOAD,LARGE,CIS,2016,TTMTR,3195669
2021-11-01T10:21:18.988128,3.82587206,0.5938269,51.5604,115.6057,73.8518,341.1064,0.00002733,0.00000043,0,17268.245,376.385,21144.459,635.762,DEBRIS,LARGE,CIS,2016,TTMTR,3195693
2021-11-01T03:31:51.566304,14.99093015,0.0031784,97.8426,254.7866,234.1545,125.6735,0.000089548,0.00001035,0,6947.834,96.058,591.782,547.616,PAYLOAD,LARGE,CIS,2016,PKMTR,3195211
2021-10-31T17:40:15.966624,14.48526135,0.0114808,98.8778,128.9166,114.8207,246.4976,0.0015493,0.00006276,0,7108.603,99.411,812.081,648.856,DEBRIS,SMALL,US,2000,AFWTR,3194950
2021-10-31T13:48:30.154464,14.23145815,0.0044195,98.8637,51.5226,30.8739,329.5023,0.00078748,0.00001751,0,7192.87,101.184,846.524,782.947,DEBRIS,SMALL,US,2000,AFWTR,3194431
2021-10-31T12:33:31.200192,14.18041626,0.0021184,98.8184,32.564,89.6028,270.7575,0.00069366,0.00001381,0,7210.12,101.548,847.259,816.712,DEBRIS,SMALL,US,2000,AFWTR,3194431
2021-10-31T08:54:24.685056,14.0549572,0.00452,98.8227,354.0637,322.0551,37.7434,0.00080028,0.00001269,0,7252.963,102.455,907.612,842.045,DEBRIS,SMALL,US,2000,AFWTR,3194431
2021-11-01T01:44:12.072480,14.17124445,0.0023341,98.7834,24.5323,115.8175,244.5411,0.00069971,0.0000137,0,7213.231,101.614,851.933,818.26,DEBRIS,SMALL,US,2000,AFWTR,3195236
2021-10-30T23:01:24.513600,14.09593769,0.0022108,98.7535,350.3064,336.2847,23.7303,0.00077342,0.00001314,0,7238.899,102.157,876.768,844.76,DEBRIS,SMALL,US,2000,AFWTR,3194431
2021-10-31T21:26:10.943808,14.06732635,0.0034275,98.7865,351.2626,7.9842,352.1866,0.00070686,0.00001138,0,7248.711,102.365,895.421,845.731,DEBRIS,SMALL,US,2000,AFWTR,3194950
2021-10-31T12:34:07.046688,14.21419801,0.0028897,98.8639,46.968,44.8185,315.5319,0.00084549,0.00001811,0,7198.692,101.307,841.359,799.755,DEBRIS,SMALL,US,2000,AFWTR,3194431
2021-10-31T15:01:28.573824,14.23386112,0.0041125,99.0093,77.0822,69.3222,291.2357,0.00097818,0.00002193,0,7192.061,101.167,843.503,784.349,DEBRIS,SMALL,US,2000,AFWTR,3194787
2021-10-30T12:22:04.072224,14.14601332,0.0019302,98.8805,25.651,217.9564,142.025,0.0012608,0.00002382,0,7221.806,101.795,857.61,829.731,DEBRIS,SMALL,US,2000,AFWTR,3192905
2021-10-31T13:49:43.755168,14.25163554,0.0043824,98.9116,64.1699,343.3571,16.6166,0.00085158,0.00001974,0,7186.08,101.041,839.437,776.453,DEBRIS,SMALL,US,2000,AFWTR,3194431
2021-10-31T17:16:35.201568,14.56040889,0.0008435,98.6251,109.9751,258.1162,101.9089,0.0089498,0.00039614,0,7084.124,98.898,711.964,700.013,DEBRIS,SMALL,US,2000,AFWTR,3194950
2021-10-31T11:54:58.450176,14.16639988,0.0015378,98.7909,24.5121,104.7037,255.5843,0.00065073,0.00001257,0,7214.876,101.649,847.836,825.646,DEBRIS,SMALL,US,2000,AFWTR,3194431
2021-10-31T10:37:14.483136,14.18453305,0.0039059,98.7299,14.6493,106.2081,254.3398,0.00084666,0.00001719,0,7208.725,101.519,858.747,802.434,DEBRIS,SMALL,US,2000,AFWTR,3194431
2021-10-31T09:54:06.762528,14.08258959,0.0024027,98.7905,358.0445,338.4031,21.6124,0.00065521,0.00001079,0,7243.473,102.254,882.742,847.934,DEBRIS,SMALL,US,2000,AFWTR,3194431
2021-11-01T01:19:02.810496,14.1853771,0.0018934,98.8213,34.8984,41.1765,319.0835,0.00072506,0.00001458,0,7208.439,101.513,843.953,816.656,DEBRIS,SMALL,US,2000,AFWTR,3195324
2021-10-31T08:54:16.658496,14.0986271,0.0027596,98.733,340.3213,266.6607,93.1407,0.00099419,0.00001713,0,7237.979,102.138,879.817,839.87,DEBRIS,SMALL,US,2000,AFWTR,3194431
2021-10-31T23:38:33.795168,14.12710613,0.0021761,98.7737,6.8274,336.5602,23.4576,0.00086987,0.00001574,0,7228.248,101.932,865.842,834.383,DEBRIS,SMALL,US,2000,AFWTR,3194988
2021-10-31T15:13:13.152864,14.27255826,0.0066537,98.968,87.3718,24.4804,335.951,0.0012431,0.00003066,0,7179.055,100.893,848.687,753.153,DEBRIS,SMALL,US,2000,AFWTR,3194950
